[{"OBJECT_NAME":"STARLINK-2476","OBJECT_ID":"2021-027AU","EPOCH":"2026-03-09T12:39:01.510848","MEAN_MOTION":15.30213621,"ECCENTRICITY":0.00017332,"INCLINATION":53.1609,"RA_OF_ASC_NODE":166.028,"ARG_OF_PERICENTER":85.9786,"MEAN_ANOMALY":274.1413,"EPHEMERIS_TYPE":0,"CLASSIFICATION_TYPE":"U","NORAD_CAT_ID":48134,"ELEMENT_SET_NO":999,"REV_AT_EPOCH":27248,"BSTAR":-8.465277e-6,"MEAN_MOTION_DOT":-6.1e-6,"MEAN_MOTION_DDOT":0},{"OBJECT_NAME":"YAOGAN-43 01G","OBJECT_ID":"2024-148G","EPOCH":"2026-03-09T10:38:37.087584","MEAN_MOTION":15.28332833,"ECCENTRICITY":0.00073829,"INCLINATION":35.0006,"RA_OF_ASC_NODE":62.0013,"ARG_OF_PERICENTER":306.3543,"MEAN_ANOMALY":53.6492,"EPHEMERIS_TYPE":0,"CLASSIFICATION_TYPE":"U","NORAD_CAT_ID":60464,"ELEMENT_SET_NO":999,"REV_AT_EPOCH":8700,"BSTAR":0.00035872736,"MEAN_MOTION_DOT":0.00010133,"MEAN_MOTION_DDOT":0}]
